OBJECT_NAME,OBJECT_ID,EPOCH,MEAN_MOTION,ECCENTRICITY,INCLINATION,RA_OF_ASC_NODE,ARG_OF_PERICENTER,MEAN_ANOMALY,EPHEMERIS_TYPE,CLASSIFICATION_TYPE,NORAD_CAT_ID,ELEMENT_SET_NO,REV_AT_EPOCH,BSTAR,MEAN_MOTION_DOT,MEAN_MOTION_DDOT
GSAT-18,2016-060A,2026-06-05T01:53:29.716224,1.00271638,.00059222,0.0316,102.8020,326.6255,286.4597,0,U,41793,999,3540,0,-.65E-6,0
SKY MUSTER 2 (NBN1B),2016-060B,2026-06-04T15:57:40.605120,1.00270210,.00017791,0.0162,314.4967,120.4465,202.3864,0,U,41794,999,3539,0,-.232E-5,0
HIMAWARI-9,2016-064A,2026-06-04T14:57:50.861376,1.00270307,.00015402,0.0411,168.7325,312.7214,136.8363,0,U,41836,999,3508,0,-.263E-5,0
SHIJIAN-17 (SJ-17),2016-065A,2026-06-04T14:40:31.649088,0.99853989,.0002103,5.7206,72.7552,19.4633,275.6729,0,U,41838,999,3507,0,-.18E-6,0
GOES 16,2016-071A,2026-06-05T06:10:33.477888,1.00271121,.00006281,0.3096,85.6430,318.5167,197.5148,0,U,41866,999,3498,0,-.79E-6,0
TIANLIAN 1-04,2016-072A,2026-06-04T02:25:19.208064,1.00275065,.00420902,0.8355,83.0574,90.3135,292.3706,0,U,41869,999,3517,0,.44E-6,0
WGS F8 (USA 272),2016-075A,2026-06-04T14:30:02.587968,1.00269488,.0000195,0.0044,358.9945,314.2495,307.1389,0,U,41879,999,3469,0,-.191E-5,0
FENGYUN 4A,2016-077A,2026-06-05T07:15:36.518400,1.00275965,.00081789,2.2926,80.4133,151.6950,254.2688,0,U,41882,999,3481,0,-.344E-5,0
ECHOSTAR 19,2016-079A,2026-06-04T14:48:32.305248,1.00272529,.00015923,0.0176,3.1037,79.8804,295.1243,0,U,41893,999,3457,0,-.127E-5,0
JCSAT-110A (JCSAT-15),2016-082A,2026-06-04T17:05:15.572256,1.00270295,.00008086,0.0023,2.5416,86.3549,170.6416,0,U,41903,999,3463,0,-.339E-5,0
STAR ONE D1,2016-082B,2026-06-05T05:36:00.957024,1.00270022,.00020838,0.0107,32.2742,55.3439,166.0474,0,U,41904,999,3465,0,-.198E-5,0
TJS-2,2017-001A,2026-06-05T03:34:02.944416,1.00272501,.00007844,0.8018,85.4949,11.5439,276.5937,0,U,41911,999,3459,0,.6E-7,0
SBIRS GEO-4 (USA 273),2017-004A,2026-06-05T06:46:18.645600,1.00272388,.0002395,2.2200,42.9481,28.1563,305.0959,0,U,41937,999,3447,0,.135E-5,0
HISPASAT 36W-1,2017-006A,2026-06-04T21:56:48.034176,1.00270604,.00009257,0.0128,147.9686,293.7802,104.8111,0,U,41942,999,3412,0,-.232E-5,0
TELKOM 3S,2017-007A,2026-06-04T22:40:42.732192,1.00271179,.0002513,0.0136,279.8281,157.3861,274.3631,0,U,41944,999,3401,0,-.35E-5,0
INTELSAT 32E (IS-32E),2017-007B,2026-06-04T11:38:44.577024,1.00272952,.00004549,0.0180,347.8046,15.9771,20.6539,0,U,41945,999,3409,0,-.257E-5,0
ECHOSTAR 23,2017-014A,2026-06-04T21:35:20.092704,1.00271139,.00018595,0.0176,5.8946,69.5571,31.8276,0,U,42070,999,3380,0,-.45E-6,0
WGS F9 (USA 275),2017-016A,2026-06-04T15:12:58.336128,1.00272187,.00004759,0.0111,299.2373,136.8333,33.2598,0,U,42075,999,3377,0,-.84E-6,0
SES-10,2017-017A,2026-06-05T06:21:13.549824,1.00272713,.0003021,0.0241,38.0833,45.5191,198.5115,0,U,42432,999,3363,0,-.261E-5,0
CHINASAT 16 (SJ-13),2017-018A,2026-06-04T12:22:32.876256,1.00268678,.00032087,0.1012,93.0486,135.6641,320.3913,0,U,42662,999,3362,0,-.34E-5,0
KOREASAT 7,2017-023A,2026-06-05T04:21:38.863584,1.00273627,.00005645,0.0227,331.2718,66.5138,37.1208,0,U,42691,999,3325,0,-.35E-5,0
SGDC,2017-023B,2026-06-04T12:07:44.027616,1.00270594,.00031093,0.0151,38.0106,46.7179,275.3120,0,U,42692,999,3328,0,-.238E-5,0
GSAT-9,2017-024A,2026-06-05T03:57:21.756096,1.00274106,.00025121,0.0183,284.7238,144.5885,340.9542,0,U,42695,999,3317,0,-.275E-5,0
INMARSAT 5-F4,2017-025A,2026-06-04T12:07:11.847936,1.00270324,.00002164,0.0175,342.7023,92.8394,55.7052,0,U,42698,999,3315,0,.87E-6,0
SES-15,2017-026A,2026-06-04T14:54:01.203264,1.00270523,.00011187,0.0208,330.5745,62.2958,314.5488,0,U,42709,999,730,0,.72E-6,0
QZS-2 (MICHIBIKI-2),2017-028A,2026-06-04T12:56:27.116736,1.00287296,.0760663,39.4467,243.3410,269.1234,75.7690,0,U,42738,999,749,0,-.155E-5,0
VIASAT-2,2017-029A,2026-06-04T16:40:52.732992,1.00271233,.00003533,0.0176,292.1747,145.4212,355.8787,0,U,42740,999,3307,0,-.253E-5,0
EUTELSAT 172B,2017-029B,2026-06-05T05:46:42.667104,1.00270301,.00001183,0.0107,86.6636,29.6093,36.0886,0,U,42741,999,3362,0,.6E-7,0
GSAT-19,2017-031A,2026-06-05T05:11:21.153984,1.00270408,.00070975,0.1024,91.4134,347.6890,300.2574,0,U,42747,999,3302,0,.138E-5,0
ECHOSTAR 21,2017-032A,2026-06-05T06:43:18.932736,1.00270397,.00024641,1.7721,354.9097,82.0965,287.8170,0,U,42749,999,3298,0,.77E-6,0
BULGARIASAT-1,2017-038A,2026-06-04T23:50:12.418656,1.00269122,.00036411,0.0632,89.1509,357.9877,165.7425,0,U,42801,999,3272,0,.23E-6,0
