GSAT-18                 
1 41793U 16060A   26156.07881616 -.00000065  00000+0  00000+0 0  9994
2 41793   0.0316 102.8020 0005922 326.6255 286.4597  1.00271638 35407
SKY MUSTER 2 (NBN1B)    
1 41794U 16060B   26155.66505330 -.00000232  00000+0  00000+0 0  9991
2 41794   0.0162 314.4967 0001779 120.4465 202.3864  1.00270210 35394
HIMAWARI-9              
1 41836U 16064A   26155.62350534 -.00000263  00000+0  00000+0 0  9996
2 41836   0.0411 168.7325 0001540 312.7214 136.8363  1.00270307 35088
SHIJIAN-17 (SJ-17)      
1 41838U 16065A   26155.61147742 -.00000018  00000+0  00000+0 0  9991
2 41838   5.7206  72.7552 0002103  19.4633 275.6729  0.99853989 35079
GOES 16                 
1 41866U 16071A   26156.25733192 -.00000079  00000+0  00000+0 0  9997
2 41866   0.3096  85.6430 0000628 318.5167 197.5148  1.00271121 34982
TIANLIAN 1-04           
1 41869U 16072A   26155.10091676  .00000044  00000+0  00000+0 0  9999
2 41869   0.8355  83.0574 0042090  90.3135 292.3706  1.00275065 35175
WGS F8 (USA 272)        
1 41879U 16075A   26155.60419662 -.00000191  00000+0  00000+0 0  9991
2 41879   0.0044 358.9945 0000195 314.2495 307.1389  1.00269488 34696
FENGYUN 4A              
1 41882U 16077A   26156.30250600 -.00000344  00000+0  00000+0 0  9990
2 41882   2.2926  80.4133 0008178 151.6950 254.2688  1.00275965 34812
ECHOSTAR 19             
1 41893U 16079A   26155.61704057 -.00000127  00000+0  00000+0 0  9996
2 41893   0.0176   3.1037 0001592  79.8804 295.1243  1.00272529 34571
JCSAT-110A (JCSAT-15)   
1 41903U 16082A   26155.71198579 -.00000339  00000+0  00000+0 0  9994
2 41903   0.0023   2.5416 0000808  86.3549 170.6416  1.00270295 34630
STAR ONE D1             
1 41904U 16082B   26156.23334441 -.00000198  00000+0  00000+0 0  9996
2 41904   0.0107  32.2742 0002083  55.3439 166.0474  1.00270022 34650
TJS-2                   
1 41911U 17001A   26156.14864519  .00000006  00000+0  00000+0 0  9997
2 41911   0.8018  85.4949 0000784  11.5439 276.5937  1.00272501 34594
SBIRS GEO-4 (USA 273)   
1 41937U 17004A   26156.28216025  .00000135  00000+0  00000+0 0  9999
2 41937   2.2200  42.9481 0002395  28.1563 305.0959  1.00272388 34474
HISPASAT 36W-1          
1 41942U 17006A   26155.91444484 -.00000232  00000+0  00000+0 0  9997
2 41942   0.0128 147.9686 0000925 293.7802 104.8111  1.00270604 34127
TELKOM 3S               
1 41944U 17007A   26155.94493903 -.00000350  00000+0  00000+0 0  9994
2 41944   0.0136 279.8281 0002513 157.3861 274.3631  1.00271179 34015
INTELSAT 32E (IS-32E)   
1 41945U 17007B   26155.48523816 -.00000257  00000+0  00000+0 0  9997
2 41945   0.0180 347.8046 0000454  15.9771  20.6539  1.00272952 34098
ECHOSTAR 23             
1 42070U 17014A   26155.89953811 -.00000045  00000+0  00000+0 0  9997
2 42070   0.0176   5.8946 0001859  69.5571  31.8276  1.00271139 33802
WGS F9 (USA 275)        
1 42075U 17016A   26155.63400852 -.00000084  00000+0  00000+0 0  9991
2 42075   0.0111 299.2373 0000475 136.8333  33.2598  1.00272187 33779
SES-10                  
1 42432U 17017A   26156.26474016 -.00000261  00000+0  00000+0 0  9999
2 42432   0.0241  38.0833 0003021  45.5191 198.5115  1.00272713 33638
CHINASAT 16 (SJ-13)     
1 42662U 17018A   26155.51565829 -.00000340  00000+0  00000+0 0  9993
2 42662   0.1012  93.0486 0003208 135.6641 320.3913  1.00268678 33628
KOREASAT 7              
1 42691U 17023A   26156.18169981 -.00000350  00000+0  00000+0 0  9995
2 42691   0.0227 331.2718 0000564  66.5138  37.1208  1.00273627 33256
SGDC                    
1 42692U 17023B   26155.50537069 -.00000238  00000+0  00000+0 0  9992
2 42692   0.0151  38.0106 0003109  46.7179 275.3120  1.00270594 33281
GSAT-9                  
1 42695U 17024A   26156.16483514 -.00000275  00000+0  00000+0 0  9995
2 42695   0.0183 284.7238 0002512 144.5885 340.9542  1.00274106 33171
INMARSAT 5-F4           
1 42698U 17025A   26155.50499824  .00000087  00000+0  00000+0 0  9997
2 42698   0.0175 342.7023 0000216  92.8394  55.7052  1.00270324 33154
SES-15                  
1 42709U 17026A   26155.62084726  .00000072  00000+0  00000+0 0  9999
2 42709   0.0208 330.5745 0001118  62.2958 314.5488  1.00270523  7307
QZS-2 (MICHIBIKI-2)     
1 42738U 17028A   26155.53920274 -.00000155  00000+0  00000+0 0  9993
2 42738  39.4467 243.3410 0760663 269.1234  75.7690  1.00287296  7490
VIASAT-2                
1 42740U 17029A   26155.69505478 -.00000253  00000+0  00000+0 0  9998
2 42740   0.0176 292.1747 0000353 145.4212 355.8787  1.00271233 33070
EUTELSAT 172B           
1 42741U 17029B   26156.24077161  .00000006  00000+0  00000+0 0  9999
2 42741   0.0107  86.6636 0000118  29.6093  36.0886  1.00270301 33621
GSAT-19                 
1 42747U 17031A   26156.21621706  .00000138  00000+0  00000+0 0  9991
2 42747   0.1024  91.4134 0007097 347.6890 300.2574  1.00270408 33026
ECHOSTAR 21             
1 42749U 17032A   26156.28008024  .00000077  00000+0  00000+0 0  9995
2 42749   1.7721 354.9097 0002464  82.0965 287.8170  1.00270397 32983
BULGARIASAT-1           
1 42801U 17038A   26155.99319929  .00000023  00000+0  00000+0 0  9997
2 42801   0.0632  89.1509 0003641 357.9877 165.7425  1.00269122 32727
